STARLINK-5799           
1 56002U 23042S   26195.36203385 -.00000748  00000+0 -17657-4 0  9997
2 56002  43.0061  64.1128 0001756 272.7003  87.3648 15.27577132182244
STARLINK-5789           
1 56003U 23042T   26195.32491732 -.00000103  00000+0  57879-5 0  9994
2 56003  43.0034  64.6878 0001635 230.1436 129.9273 15.27575268182230
STARLINK-5787           
1 56004U 23042U   26194.92053870 -.00000047  00000+0  78372-5 0  9995
2 56004  43.0047  70.2351 0001659 269.4891  90.5771 15.27579628182139
STARLINK-5801           
1 56005U 23042V   26195.35268861 -.00002214  00000+0 -70926-4 0  9997
2 56005  43.0070  68.3115 0003315 256.6150 103.4332 15.27566427182195
STARLINK-5794           
1 56006U 23042W   26195.36762025 -.00000353  00000+0 -33234-5 0  9994
2 56006  43.0041  71.8337 0000968 259.8224 100.2518 15.27574486182158
STARLINK-5806           
1 56007U 23042X   26194.91203575  .00000435  00000+0  25341-4 0  9993
2 56007  43.0051  66.7537 0001723 266.7377  93.3278 15.27582715182172
STARLINK-5803           
1 56008U 23042Y   26195.35947353  .00003123  00000+0  12308-3 0  9997
2 56008  43.0038  64.0860 0001607 275.5425  84.5243 15.27543374182230
STARLINK-5964           
1 56009U 23042Z   26195.37182104 -.00000722  00000+0 -16693-4 0  9991
2 56009  43.0055  67.6010 0001803 277.2589  82.8057 15.27575253182206
STARLINK-5968           
1 56010U 23042AA  26195.96208547 -.00000021  00000+0  87678-5 0  9991
2 56010  43.0019  60.8726 0000973 301.8197  58.2560 15.27569096182331
STARLINK-5936           
1 56011U 23042AB  26195.91004385  .00000047  00000+0  11238-4 0  9996
2 56011  43.0034  46.6377 0001064 271.0172  89.0557 15.27576902182495
STARLINK-5940           
1 56012U 23042AC  26195.89205612 -.00000620  00000+0 -13015-4 0  9994
2 56012  43.0033  46.5048 0001295 267.5913  92.4790 15.27573328182494
STARLINK-5941           
1 56013U 23042AD  26194.92617204 -.00000266  00000+0 -15027-6 0  9995
2 56013  43.0029  66.8507 0001740 247.9027 112.1640 15.27575786182177
STARLINK-5942           
1 56014U 23042AE  26195.32542361 -.00000278  00000+0 -55370-6 0  9990
2 56014  43.0057  49.9905 0001844 270.2420  89.8220 15.27572703182400
STARLINK-5939           
1 56015U 23042AF  26195.89976678 -.00000759  00000+0 -18025-4 0  9993
2 56015  43.0070  46.5642 0002645 265.6425  94.4124 15.27568915182494
STARLINK-5943           
1 56016U 23042AG  26195.94345145 -.00000408  00000+0 -52931-5 0  9995
2 56016  43.0023  46.8728 0000856 255.2949 104.7808 15.27579277182496
STARLINK-5934           
1 56017U 23042AH  26194.94723259 -.00000358  00000+0 -34864-5 0  9990
2 56017  43.0033  52.3020 0001913 247.8300 112.2349 15.27579808182346
STARLINK-5945           
1 56018U 23042AJ  26195.93959651  .00000358  00000+0  22544-4 0  9997
2 56018  43.0038  46.8445 0001375 269.3299  90.7395 15.27577546182493
STARLINK-5949           
1 56019U 23042AK  26195.92161392 -.00002102  00000+0 -66845-4 0  9997
2 56019  43.0069  46.7160 0001227 284.2233  75.8482 15.27589258182495
STARLINK-5912           
1 56020U 23042AL  26195.02033164 -.00000178  00000+0  30569-5 0  9990
2 56020  43.0037  51.9910 0001778 250.0415 110.0245 15.27579490182358
STARLINK-5907           
1 56021U 23042AM  26195.93188094  .00000527  00000+0  28680-4 0  9991
2 56021  43.0021  46.7924 0002376 235.7129 124.3498 15.27581771182494
STARLINK-5783           
1 56022U 23042AN  26195.89076825 -.00000461  00000+0 -72425-5 0  9991
2 56022  43.0030  46.4862 0001269 262.2794  97.7913 15.27575953182496
STARLINK-5771           
1 56023U 23042AP  26195.94987856 -.00000499  00000+0 -86019-5 0  9998
2 56023  43.0030  46.9210 0000831 265.5245  94.5511 15.27574829182490
STARLINK-5772           
1 56024U 23042AQ  26195.31385050  .00000309  00000+0  20736-4 0  9999
2 56024  43.0057  49.8931 0001031 295.6762  64.3983 15.27579969182402
STARLINK-5766           
1 56025U 23042AR  26195.29472477 -.00000009  00000+0  92134-5 0  9997
2 56025  43.0034  50.6013 0001078 294.7210  65.3529 15.27576950182390
STARLINK-5770           
1 56026U 23042AS  26195.96000922 -.00000346  00000+0 -30319-5 0  9996
2 56026  43.0070  46.1468 0001569 263.0214  97.0459 15.27574269182499
STARLINK-5777           
1 56027U 23042AT  26195.88949625  .00009593  00000+0  35810-3 0  9990
2 56027  43.0020  46.4807 0001489 248.8110 111.2583 15.27539203182498
STARLINK-5779           
1 56028U 23042AU  26195.32413384 -.00000323  00000+0 -22034-5 0  9998
2 56028  43.0064  49.9680 0001609 265.4447  94.6221 15.27576608182400
STARLINK-5774           
1 56029U 23042AV  26195.89847471 -.00000392  00000+0 -46850-5 0  9997
2 56029  43.0075  46.5402 0002678 265.1183  94.9363 15.27571741182491
STARLINK-5781           
1 56030U 23042AW  26195.32798866 -.00000265  00000+0 -10491-6 0  9992
2 56030  43.0058  49.9936 0001724 272.0974  87.9680 15.27576785182407
STARLINK-5785           
1 56031U 23042AX  26195.77413112 -.00000057  00000+0  74594-5 0  9991
2 56031  43.0021  47.3319 0001291 274.7267  85.3437 15.27573596182474
