OBJECT_NAME,OBJECT_ID,EPOCH,MEAN_MOTION,ECCENTRICITY,INCLINATION,RA_OF_ASC_NODE,ARG_OF_PERICENTER,MEAN_ANOMALY,EPHEMERIS_TYPE,CLASSIFICATION_TYPE,NORAD_CAT_ID,ELEMENT_SET_NO,REV_AT_EPOCH,BSTAR,MEAN_MOTION_DOT,MEAN_MOTION_DDOT
STARLINK-5799,2023-042S,2026-07-14T08:41:19.724640,15.27577132,.00017563,43.0061,64.1128,272.7003,87.3648,0,U,56002,999,18224,-.17656824E-4,-.748E-5,0
STARLINK-5789,2023-042T,2026-07-14T07:47:52.856448,15.27575268,.00016353,43.0034,64.6878,230.1436,129.9273,0,U,56003,999,18223,.578786E-5,-.103E-5,0
STARLINK-5787,2023-042U,2026-07-13T22:05:34.543680,15.27579628,.00016592,43.0047,70.2351,269.4891,90.5771,0,U,56004,999,18213,.7837213E-5,-.47E-6,0
STARLINK-5801,2023-042V,2026-07-14T08:27:52.295904,15.27566427,.0003315,43.0070,68.3115,256.6150,103.4332,0,U,56005,999,18219,-.70926151E-4,-.2214E-4,0
STARLINK-5794,2023-042W,2026-07-14T08:49:22.389600,15.27574486,.00009682,43.0041,71.8337,259.8224,100.2518,0,U,56006,999,18215,-.3323368E-5,-.353E-5,0
STARLINK-5806,2023-042X,2026-07-13T21:53:19.888800,15.27582715,.00017237,43.0051,66.7537,266.7377,93.3278,0,U,56007,999,18217,.25340974E-4,.435E-5,0
STARLINK-5803,2023-042Y,2026-07-14T08:37:38.512992,15.27543374,.00016078,43.0038,64.0860,275.5425,84.5243,0,U,56008,999,18223,.12308316E-3,.3123E-4,0
STARLINK-5964,2023-042Z,2026-07-14T08:55:25.337856,15.27575253,.00018031,43.0055,67.6010,277.2589,82.8057,0,U,56009,999,18220,-.16692629E-4,-.722E-5,0
STARLINK-5968,2023-042AA,2026-07-14T23:05:24.184608,15.27569096,.00009736,43.0019,60.8726,301.8197,58.2560,0,U,56010,999,18233,.8767814E-5,-.21E-6,0
STARLINK-5936,2023-042AB,2026-07-14T21:50:27.788640,15.27576902,.00010643,43.0034,46.6377,271.0172,89.0557,0,U,56011,999,18249,.11237516E-4,.47E-6,0
STARLINK-5940,2023-042AC,2026-07-14T21:24:33.648768,15.27573328,.00012955,43.0033,46.5048,267.5913,92.4790,0,U,56012,999,18249,-.13014652E-4,-.62E-5,0
STARLINK-5941,2023-042AD,2026-07-13T22:13:41.264256,15.27575786,.00017407,43.0029,66.8507,247.9027,112.1640,0,U,56013,999,18217,-.150266E-6,-.266E-5,0
STARLINK-5942,2023-042AE,2026-07-14T07:48:36.599904,15.27572703,.00018448,43.0057,49.9905,270.2420,89.8220,0,U,56014,999,18240,-.553696E-6,-.278E-5,0
STARLINK-5939,2023-042AF,2026-07-14T21:35:39.849792,15.27568915,.00026458,43.0070,46.5642,265.6425,94.4124,0,U,56015,999,18249,-.18024541E-4,-.759E-5,0
STARLINK-5943,2023-042AG,2026-07-14T22:38:34.205280,15.27579277,.00008561,43.0023,46.8728,255.2949,104.7808,0,U,56016,999,18249,-.5293056E-5,-.408E-5,0
STARLINK-5934,2023-042AH,2026-07-13T22:44:00.895776,15.27579808,.00019134,43.0033,52.3020,247.8300,112.2349,0,U,56017,999,18234,-.3486435E-5,-.358E-5,0
STARLINK-5945,2023-042AJ,2026-07-14T22:33:01.138464,15.27577546,.00013756,43.0038,46.8445,269.3299,90.7395,0,U,56018,999,18249,.22544247E-4,.358E-5,0
STARLINK-5949,2023-042AK,2026-07-14T22:07:07.442688,15.27589258,.00012277,43.0069,46.7160,284.2233,75.8482,0,U,56019,999,18249,-.66845425E-4,-.2102E-4,0
STARLINK-5912,2023-042AL,2026-07-14T00:29:16.653696,15.27579490,.0001778,43.0037,51.9910,250.0415,110.0245,0,U,56020,999,18235,.3056921E-5,-.178E-5,0
STARLINK-5907,2023-042AM,2026-07-14T22:21:54.513216,15.27581771,.00023766,43.0021,46.7924,235.7129,124.3498,0,U,56021,999,18249,.28679802E-4,.527E-5,0
STARLINK-5783,2023-042AN,2026-07-14T21:22:42.376800,15.27575953,.00012696,43.0030,46.4862,262.2794,97.7913,0,U,56022,999,18249,-.7242496E-5,-.461E-5,0
STARLINK-5771,2023-042AP,2026-07-14T22:47:49.507584,15.27574829,.0000831,43.0030,46.9210,265.5245,94.5511,0,U,56023,999,18249,-.8601877E-5,-.499E-5,0
STARLINK-5772,2023-042AQ,2026-07-14T07:31:56.683200,15.27579969,.00010316,43.0057,49.8931,295.6762,64.3983,0,U,56024,999,18240,.20735554E-4,.309E-5,0
STARLINK-5766,2023-042AR,2026-07-14T07:04:24.220128,15.27576950,.00010788,43.0034,50.6013,294.7210,65.3529,0,U,56025,999,18239,.9213389E-5,-.9E-7,0
STARLINK-5770,2023-042AS,2026-07-14T23:02:24.796608,15.27574269,.00015691,43.0070,46.1468,263.0214,97.0459,0,U,56026,999,18249,-.3031934E-5,-.346E-5,0
STARLINK-5777,2023-042AT,2026-07-14T21:20:52.476000,15.27539203,.00014898,43.0020,46.4807,248.8110,111.2583,0,U,56027,999,18249,.35810082E-3,.9593E-4,0
STARLINK-5779,2023-042AU,2026-07-14T07:46:45.163776,15.27576608,.0001609,43.0064,49.9680,265.4447,94.6221,0,U,56028,999,18240,-.220341E-5,-.323E-5,0
STARLINK-5774,2023-042AV,2026-07-14T21:33:48.214944,15.27571741,.00026787,43.0075,46.5402,265.1183,94.9363,0,U,56029,999,18249,-.4684955E-5,-.392E-5,0
STARLINK-5781,2023-042AW,2026-07-14T07:52:18.220224,15.27576785,.00017243,43.0058,49.9936,272.0974,87.9680,0,U,56030,999,18240,-.104911E-6,-.265E-5,0
STARLINK-5785,2023-042AX,2026-07-14T18:34:44.928768,15.27573596,.00012917,43.0021,47.3319,274.7267,85.3437,0,U,56031,999,18247,.7459363E-5,-.57E-6,0
